ASTROCAST-0403          
1 55111U 23001DG  26068.82333059  .00013959  00000+0  51317-3 0  9990
2 55111  97.5604 161.3228 0004771 338.0704  22.0330 15.28004949129377
STARLINK-35935          
1 66527U 25265M   26068.57369823  .00064497  00000+0  23305-2 0  9995
2 66527  43.0066 278.7646 0001952 251.4524 108.6116 15.27613078 17097
